{
  "norad_id": 53743,
  "name": "STARLINK-4645",
  "history": [
    {
      "epoch": "2026-03-28T15:27:36.486720",
      "apogee_km": 540.732901544623,
      "perigee_km": 538.7184199378153,
      "latitude_deg": -53.174349397309115,
      "longitude_deg": -23.85945919994265,
      "semi_major_axis_km": 6917.862660741219,
      "eccentricity": 0.0001456,
      "inclination_deg": 53.218,
      "raan_deg": 179.1204,
      "arg_perigee_deg": 76.0055,
      "mean_anomaly_deg": 284.1099,
      "mean_motion_rev_day": 15.088458
    },
    {
      "epoch": "2026-03-28T23:24:32.495904",
      "apogee_km": 540.5752532613815,
      "perigee_km": 538.9232620230569,
      "latitude_deg": -31.23985931699491,
      "longitude_deg": 7.936106560053304,
      "semi_major_axis_km": 6917.886257642219,
      "eccentricity": 0.0001194,
      "inclination_deg": 53.2174,
      "raan_deg": 177.6348,
      "arg_perigee_deg": 79.6841,
      "mean_anomaly_deg": 280.4286,
      "mean_motion_rev_day": 15.0883808
    }
  ]
}